[
  {
    "OBJECT_NAME": "STARLINK-3125",
    "OBJECT_ID": "21104AV",
    "EPOCH": "2025-11-11T05:49:10.142400",
    "MEAN_MOTION": 15.08838811,
    "ECCENTRICITY": 0.0001399,
    "INCLINATION": 53.2189,
    "RA_OF_ASC_NODE": 30.8511,
    "ARG_OF_PERICENTER": 94.4425,
    "MEAN_ANOMALY": 265.6727,
    "EPHEMERIS_TYPE": 0,
    "CLASSIFICATION_TYPE": "U",
    "NORAD_CAT_ID": 49451,
    "ELEMENT_SET_NO": 999,
    "REV_AT_EPOCH": 22089,
    "BSTAR": 4.2983e-05,
    "MEAN_MOTION_DOT": 3.96e-06,
    "MEAN_MOTION_DDOT": 0.0,
    "TLE_LINE1": "1 49451U 21104AV  25315.24247850  .00000396  00000+0  42983-4 0  9996",
    "TLE_LINE2": "2 49451  53.2189  30.8511 0001399  94.4425 265.6727 15.08838811220890",
    "COMMENT": "Grouped by shell and plane from TLE"
  },
  {
    "OBJECT_NAME": "STARLINK-3150",
    "OBJECT_ID": "21104AW",
    "EPOCH": "2025-11-11T05:34:39.589824",
    "MEAN_MOTION": 15.08846486,
    "ECCENTRICITY": 0.0001401,
    "INCLINATION": 53.2186,
    "RA_OF_ASC_NODE": 30.9313,
    "ARG_OF_PERICENTER": 89.627,
    "MEAN_ANOMALY": 270.4883,
    "EPHEMERIS_TYPE": 0,
    "CLASSIFICATION_TYPE": "U",
    "NORAD_CAT_ID": 49452,
    "ELEMENT_SET_NO": 999,
    "REV_AT_EPOCH": 22089,
    "BSTAR": 0.00024647,
    "MEAN_MOTION_DOT": 3.638e-05,
    "MEAN_MOTION_DDOT": 0.0,
    "TLE_LINE1": "1 49452U 21104AW  25315.23240266  .00003638  00000+0  24647-3 0  9998",
    "TLE_LINE2": "2 49452  53.2186  30.9313 0001401  89.6270 270.4883 15.08846486220891",
    "COMMENT": "Grouped by shell and plane from TLE"
  },
  {
    "OBJECT_NAME": "STARLINK-3129",
    "OBJECT_ID": "21104AX",
    "EPOCH": "2025-11-11T05:50:34.244160",
    "MEAN_MOTION": 15.08835394,
    "ECCENTRICITY": 0.000135,
    "INCLINATION": 53.218,
    "RA_OF_ASC_NODE": 30.9344,
    "ARG_OF_PERICENTER": 92.3344,
    "MEAN_ANOMALY": 267.7803,
    "EPHEMERIS_TYPE": 0,
    "CLASSIFICATION_TYPE": "U",
    "NORAD_CAT_ID": 49453,
    "ELEMENT_SET_NO": 999,
    "REV_AT_EPOCH": 22089,
    "BSTAR": 2.7688000000000003e-05,
    "MEAN_MOTION_DOT": 1.53e-06,
    "MEAN_MOTION_DDOT": 0.0,
    "TLE_LINE1": "1 49453U 21104AX  25315.24345190  .00000153  00000+0  27688-4 0  9990",
    "TLE_LINE2": "2 49453  53.2180  30.9344 0001350  92.3344 267.7803 15.08835394220893",
    "COMMENT": "Grouped by shell and plane from TLE"
  },
  {
    "OBJECT_NAME": "STARLINK-3160",
    "OBJECT_ID": "21104AY",
    "EPOCH": "2025-11-11T05:43:50.950560",
    "MEAN_MOTION": 15.08865927,
    "ECCENTRICITY": 0.0001206,
    "INCLINATION": 53.2193,
    "RA_OF_ASC_NODE": 30.8662,
    "ARG_OF_PERICENTER": 90.5504,
    "MEAN_ANOMALY": 269.5626,
    "EPHEMERIS_TYPE": 0,
    "CLASSIFICATION_TYPE": "U",
    "NORAD_CAT_ID": 49454,
    "ELEMENT_SET_NO": 999,
    "REV_AT_EPOCH": 22089,
    "BSTAR": 0.00016065,
    "MEAN_MOTION_DOT": 2.271e-05,
    "MEAN_MOTION_DDOT": 0.0,
    "TLE_LINE1": "1 49454U 21104AY  25315.23878415  .00002271  00000+0  16065-3 0  9990",
    "TLE_LINE2": "2 49454  53.2193  30.8662 0001206  90.5504 269.5626 15.08865927220896",
    "COMMENT": "Grouped by shell and plane from TLE"
  },
  {
    "OBJECT_NAME": "STARLINK-3145",
    "OBJECT_ID": "21104AZ",
    "EPOCH": "2025-11-11T05:22:40.233792",
    "MEAN_MOTION": 15.08856683,
    "ECCENTRICITY": 0.000152,
    "INCLINATION": 53.2186,
    "RA_OF_ASC_NODE": 30.9329,
    "ARG_OF_PERICENTER": 92.5324,
    "MEAN_ANOMALY": 267.5842,
    "EPHEMERIS_TYPE": 0,
    "CLASSIFICATION_TYPE": "U",
    "NORAD_CAT_ID": 49455,
    "ELEMENT_SET_NO": 999,
    "REV_AT_EPOCH": 22089,
    "BSTAR": 0.0001289,
    "MEAN_MOTION_DOT": 1.765e-05,
    "MEAN_MOTION_DDOT": 0.0,
    "TLE_LINE1": "1 49455U 21104AZ  25315.22407678  .00001765  00000+0  12890-3 0  9998",
    "TLE_LINE2": "2 49455  53.2186  30.9329 0001520  92.5324 267.5842 15.08856683220898",
    "COMMENT": "Grouped by shell and plane from TLE"
  },
  {
    "OBJECT_NAME": "STARLINK-3124",
    "OBJECT_ID": "21104BA",
    "EPOCH": "2025-11-11T05:39:57.319776",
    "MEAN_MOTION": 15.08837521,
    "ECCENTRICITY": 0.0001358,
    "INCLINATION": 53.2192,
    "RA_OF_ASC_NODE": 30.9269,
    "ARG_OF_PERICENTER": 83.0335,
    "MEAN_ANOMALY": 277.0812,
    "EPHEMERIS_TYPE": 0,
    "CLASSIFICATION_TYPE": "U",
    "NORAD_CAT_ID": 49456,
    "ELEMENT_SET_NO": 999,
    "REV_AT_EPOCH": 22089,
    "BSTAR": 2.9683e-05,
    "MEAN_MOTION_DOT": 1.84e-06,
    "MEAN_MOTION_DDOT": 0.0,
    "TLE_LINE1": "1 49456U 21104BA  25315.23608009  .00000184  00000+0  29683-4 0  9994",
    "TLE_LINE2": "2 49456  53.2192  30.9269 0001358  83.0335 277.0812 15.08837521220898",
    "COMMENT": "Grouped by shell and plane from TLE"
  },
  {
    "OBJECT_NAME": "STARLINK-3132",
    "OBJECT_ID": "21104BB",
    "EPOCH": "2025-11-11T05:18:44.876736",
    "MEAN_MOTION": 15.08846071,
    "ECCENTRICITY": 0.0001473,
    "INCLINATION": 53.2194,
    "RA_OF_ASC_NODE": 30.9541,
    "ARG_OF_PERICENTER": 95.9236,
    "MEAN_ANOMALY": 264.1924,
    "EPHEMERIS_TYPE": 0,
    "CLASSIFICATION_TYPE": "U",
    "NORAD_CAT_ID": 49457,
    "ELEMENT_SET_NO": 999,
    "REV_AT_EPOCH": 22089,
    "BSTAR": 4.593e-05,
    "MEAN_MOTION_DOT": 4.43e-06,
    "MEAN_MOTION_DDOT": 0.0,
    "TLE_LINE1": "1 49457U 21104BB  25315.22135274  .00000443  00000+0  45930-4 0  9994",
    "TLE_LINE2": "2 49457  53.2194  30.9541 0001473  95.9236 264.1924 15.08846071220895",
    "COMMENT": "Grouped by shell and plane from TLE"
  },
  {
    "OBJECT_NAME": "STARLINK-3156",
    "OBJECT_ID": "21104BC",
    "EPOCH": "2025-11-11T05:27:58.266144",
    "MEAN_MOTION": 15.08838316,
    "ECCENTRICITY": 4.83e-05,
    "INCLINATION": 53.2226,
    "RA_OF_ASC_NODE": 30.9168,
    "ARG_OF_PERICENTER": 17.6637,
    "MEAN_ANOMALY": 342.4372,
    "EPHEMERIS_TYPE": 0,
    "CLASSIFICATION_TYPE": "U",
    "NORAD_CAT_ID": 49458,
    "ELEMENT_SET_NO": 999,
    "REV_AT_EPOCH": 22089,
    "BSTAR": 0.0,
    "MEAN_MOTION_DOT": -1.102e-05,
    "MEAN_MOTION_DDOT": 0.0,
    "TLE_LINE1": "1 49458U 21104BC  25315.22775771 -.00001102  00000+0 -51163-4 0  9997",
    "TLE_LINE2": "2 49458  53.2226  30.9168 0000483  17.6637 342.4372 15.08838316220893",
    "COMMENT": "Grouped by shell and plane from TLE"
  },
  {
    "OBJECT_NAME": "STARLINK-3141",
    "OBJECT_ID": "21104BD",
    "EPOCH": "2025-11-11T05:12:03.764736",
    "MEAN_MOTION": 15.08849281,
    "ECCENTRICITY": 0.000175,
    "INCLINATION": 53.2203,
    "RA_OF_ASC_NODE": 30.9654,
    "ARG_OF_PERICENTER": 102.0551,
    "MEAN_ANOMALY": 258.0638,
    "EPHEMERIS_TYPE": 0,
    "CLASSIFICATION_TYPE": "U",
    "NORAD_CAT_ID": 49459,
    "ELEMENT_SET_NO": 999,
    "REV_AT_EPOCH": 22089,
    "BSTAR": 8.5171e-05,
    "MEAN_MOTION_DOT": 1.068e-05,
    "MEAN_MOTION_DDOT": 0.0,
    "TLE_LINE1": "1 49459U 21104BD  25315.21671024  .00001068  00000+0  85171-4 0  9998",
    "TLE_LINE2": "2 49459  53.2203  30.9654 0001750 102.0551 258.0638 15.08849281220891",
    "COMMENT": "Grouped by shell and plane from TLE"
  },
  {
    "OBJECT_NAME": "STARLINK-3140",
    "OBJECT_ID": "21104BE",
    "EPOCH": "2025-11-11T05:06:46.296576",
    "MEAN_MOTION": 15.08841965,
    "ECCENTRICITY": 0.0001891,
    "INCLINATION": 53.22,
    "RA_OF_ASC_NODE": 30.9821,
    "ARG_OF_PERICENTER": 96.1987,
    "MEAN_ANOMALY": 263.9221,
    "EPHEMERIS_TYPE": 0,
    "CLASSIFICATION_TYPE": "U",
    "NORAD_CAT_ID": 49460,
    "ELEMENT_SET_NO": 999,
    "REV_AT_EPOCH": 22088,
    "BSTAR": 4.755e-05,
    "MEAN_MOTION_DOT": 4.69e-06,
    "MEAN_MOTION_DDOT": 0.0,
    "TLE_LINE1": "1 49460U 21104BE  25315.21303584  .00000469  00000+0  47550-4 0  9996",
    "TLE_LINE2": "2 49460  53.2200  30.9821 0001891  96.1987 263.9221 15.08841965220881",
    "COMMENT": "Grouped by shell and plane from TLE"
  },
  {
    "OBJECT_NAME": "STARLINK-4605",
    "OBJECT_ID": "22104AE",
    "EPOCH": "2025-11-11T04:21:02.772576",
    "MEAN_MOTION": 15.08842975,
    "ECCENTRICITY": 0.0001295,
    "INCLINATION": 53.218,
    "RA_OF_ASC_NODE": 35.999,
    "ARG_OF_PERICENTER": 84.5382,
    "MEAN_ANOMALY": 275.5758,
    "EPHEMERIS_TYPE": 0,
    "CLASSIFICATION_TYPE": "U",
    "NORAD_CAT_ID": 53616,
    "ELEMENT_SET_NO": 999,
    "REV_AT_EPOCH": 17799,
    "BSTAR": 6.0787000000000006e-05,
    "MEAN_MOTION_DOT": 6.8e-06,
    "MEAN_MOTION_DDOT": 0.0,
    "TLE_LINE1": "1 53616U 22104AE  25315.18128209  .00000680  00000+0  60787-4 0  9992",
    "TLE_LINE2": "2 53616  53.2180  35.9990 0001295  84.5382 275.5758 15.08842975177995",
    "COMMENT": "Grouped by shell and plane from TLE"
  },
  {
    "OBJECT_NAME": "STARLINK-4598",
    "OBJECT_ID": "22104AU",
    "EPOCH": "2025-11-11T05:57:50.986656",
    "MEAN_MOTION": 15.08836173,
    "ECCENTRICITY": 0.0001244,
    "INCLINATION": 53.2178,
    "RA_OF_ASC_NODE": 35.8981,
    "ARG_OF_PERICENTER": 71.8699,
    "MEAN_ANOMALY": 288.2428,
    "EPHEMERIS_TYPE": 0,
    "CLASSIFICATION_TYPE": "U",
    "NORAD_CAT_ID": 53630,
    "ELEMENT_SET_NO": 999,
    "REV_AT_EPOCH": 17818,
    "BSTAR": 0.00026579,
    "MEAN_MOTION_DOT": 3.944e-05,
    "MEAN_MOTION_DDOT": 0.0,
    "TLE_LINE1": "1 53630U 22104AU  25315.24850679  .00003944  00000+0  26579-3 0  9994",
    "TLE_LINE2": "2 53630  53.2178  35.8981 0001244  71.8699 288.2428 15.08836173178181",
    "COMMENT": "Grouped by shell and plane from TLE"
  },
  {
    "OBJECT_NAME": "STARLINK-4606",
    "OBJECT_ID": "22104AW",
    "EPOCH": "2025-11-11T05:45:51.034464",
    "MEAN_MOTION": 15.08846083,
    "ECCENTRICITY": 0.0001362,
    "INCLINATION": 53.2209,
    "RA_OF_ASC_NODE": 35.8449,
    "ARG_OF_PERICENTER": 90.0815,
    "MEAN_ANOMALY": 270.0333,
    "EPHEMERIS_TYPE": 0,
    "CLASSIFICATION_TYPE": "U",
    "NORAD_CAT_ID": 53632,
    "ELEMENT_SET_NO": 999,
    "REV_AT_EPOCH": 17834,
    "BSTAR": 0.00010983,
    "MEAN_MOTION_DOT": 1.461e-05,
    "MEAN_MOTION_DDOT": 0.0,
    "TLE_LINE1": "1 53632U 22104AW  25315.24017401  .00001461  00000+0  10983-3 0  9998",
    "TLE_LINE2": "2 53632  53.2209  35.8449 0001362  90.0815 270.0333 15.08846083178344",
    "COMMENT": "Grouped by shell and plane from TLE"
  }
]